[{"OBJECT_NAME":"STARLINK-1434","OBJECT_ID":"2020-035BH","EPOCH":"2026-03-09T05:47:35.213856","MEAN_MOTION":15.26724568,"ECCENTRICITY":0.00053438,"INCLINATION":53.0547,"RA_OF_ASC_NODE":22.1128,"ARG_OF_PERICENTER":88.04,"MEAN_ANOMALY":272.121,"EPHEMERIS_TYPE":0,"CLASSIFICATION_TYPE":"U","NORAD_CAT_ID":45712,"ELEMENT_SET_NO":999,"REV_AT_EPOCH":31932,"BSTAR":0.0020295208,"MEAN_MOTION_DOT":0.00054112,"MEAN_MOTION_DDOT":0},{"OBJECT_NAME":"STARLINK-31692","OBJECT_ID":"2024-076P","EPOCH":"2026-03-09T04:19:37.028352","MEAN_MOTION":15.27578376,"ECCENTRICITY":0.00014704,"INCLINATION":43.0042,"RA_OF_ASC_NODE":11.9462,"ARG_OF_PERICENTER":261.8483,"MEAN_ANOMALY":98.2202,"EPHEMERIS_TYPE":0,"CLASSIFICATION_TYPE":"U","NORAD_CAT_ID":59577,"ELEMENT_SET_NO":999,"REV_AT_EPOCH":10642,"BSTAR":4.2720269e-5,"MEAN_MOTION_DOT":9.13e-6,"MEAN_MOTION_DDOT":0}]
